H1 CPF  1  DGF 2022 07 28 11  7091 larets     NONE      
H2   304206 5557    27944 2022 07 28 00 00 00 2022 08 04 00 00 00    30 1 1  0 0 0
H5  0.0650
H9
10 0 59791  21600.000000  0      -1046841.172       3332605.921      -6146262.738
10 0 59791  21630.000000  0       -921203.371       3174001.703      -6249832.529
10 0 59791  21660.000000  0       -795340.480       3011652.960      -6347065.789
10 0 59791  21690.000000  0       -669395.425       2845723.315      -6437865.846
10 0 59791  21720.000000  0       -543510.409       2676380.484      -6522142.529
10 0 59791  21750.000000  0       -417826.752       2503796.114      -6599812.254
10 0 59791  21780.000000  0       -292484.739       2328145.601      -6670798.093
10 0 59791  21810.000000  0       -167623.467       2149607.913      -6735029.840
10 0 59791  21840.000000  0        -43380.699       1968365.406      -6792444.076
10 0 59791  21870.000000  0         80107.285       1784603.643      -6842984.217
10 0 59791  21900.000000  0        202705.838       1598511.201      -6886600.569
10 0 59791  21930.000000  0        324282.082       1410279.481      -6923250.359
10 0 59791  21960.000000  0        444705.052       1220102.517      -6952897.780
10 0 59791  21990.000000  0        563845.836       1028176.778      -6975514.012
10 0 59791  22020.000000  0        681577.701        834700.971      -6991077.248
10 0 59791  22050.000000  0        797776.232        639875.832      -6999572.712
10 0 59791  22080.000000  0        912319.455        443903.929      -7000992.668
10 0 59791  22110.000000  0       1025087.958        246989.449      -6995336.419
10 0 59791  22140.000000  0       1135965.016         49337.992      -6982610.307
10 0 59791  22170.000000  0       1244836.706       -148843.634      -6962827.700
10 0 59791  22200.000000  0       1351592.017       -347347.627      -6936008.977
10 0 59791  22230.000000  0       1456122.961       -545965.398      -6902181.510
10 0 59791  22260.000000  0       1558324.677       -744487.784      -6861379.634
10 0 59791  22290.000000  0       1658095.535       -942705.266      -6813644.619
10 0 59791  22320.000000  0       1755337.232      -1140408.180      -6759024.633
10 0 59791  22350.000000  0       1849954.891      -1337386.931      -6697574.688
10 0 59791  22380.000000  0       1941857.151      -1533432.214      -6629356.600
10 0 59791  22410.000000  0       2030956.250      -1728335.225      -6554438.920
10 0 59791  22440.000000  0       2117168.110      -1921887.877      -6472896.881
10 0 59791  22470.000000  0       2200412.412      -2113883.017      -6384812.329
10 0 59791  22500.000000  0       2280612.670      -2304114.645      -6290273.652
10 0 59791  22530.000000  0       2357696.305      -2492378.132      -6189375.700
10 0 59791  22560.000000  0       2431594.707      -2678470.439      -6082219.702
10 0 59791  22590.000000  0       2502243.302      -2862190.336      -5968913.171
10 0 59791  22620.000000  0       2569581.606      -3043338.622      -5849569.803
10 0 59791  22650.000000  0       2633553.281      -3221718.338      -5724309.372
10 0 59791  22680.000000  0       2694106.177      -3397134.981      -5593257.614
10 0 59791  22710.000000  0       2751192.377      -3569396.716      -5456546.107
10 0 59791  22740.000000  0       2804768.230      -3738314.583      -5314312.147
10 0 59791  22770.000000  0       2854794.388      -3903702.699      -5166698.622
10 0 59791  22800.000000  0       2901235.832      -4065378.469      -5013853.875
10 0 59791  22830.000000  0       2944061.892      -4223162.782      -4855931.565
10 0 59791  22860.000000  0       2983246.268      -4376880.213      -4693090.524
10 0 59791  22890.000000  0       3018767.042      -4526359.221      -4525494.609
10 0 59791  22920.000000  0       3050606.687      -4671432.341      -4353312.544
10 0 59791  22950.000000  0       3078752.074      -4811936.380      -4176717.766
10 0 59791  22980.000000  0       3103194.466      -4947712.604      -3995888.253
10 0 59791  23010.000000  0       3123929.519      -5078606.927      -3811006.357
10 0 59791  23040.000000  0       3140957.263      -5204470.092      -3622258.623
10 0 59791  23070.000000  0       3154282.088      -5325157.848      -3429835.604
10 0 59791  23100.000000  0       3163912.724      -5440531.118      -3233931.676
10 0 59791  23130.000000  0       3169862.208      -5550456.164      -3034744.845
10 0 59791  23160.000000  0       3172147.860      -5654804.752      -2832476.550
10 0 59791  23190.000000  0       3170791.242      -5753454.304      -2627331.466
10 0 59791  23220.000000  0       3165818.117      -5846288.049      -2419517.298
10 0 59791  23250.000000  0       3157258.405      -5933195.171      -2209244.575
10 0 59791  23280.000000  0       3145146.130      -6014070.943      -1996726.434
10 0 59791  23310.000000  0       3129519.362      -6088816.866      -1782178.408
10 0 59791  23340.000000  0       3110420.158      -6157340.793      -1565818.203
10 0 59791  23370.000000  0       3087894.492      -6219557.046      -1347865.478
10 0 59791  23400.000000  0       3061992.185      -6275386.530      -1128541.616
10 0 59791  23430.000000  0       3032766.827      -6324756.840       -908069.500
10 0 59791  23460.000000  0       3000275.699      -6367602.351       -686673.277
10 0 59791  23490.000000  0       2964579.681      -6403864.308       -464578.131
10 0 59791  23520.000000  0       2925743.169      -6433490.905       -242010.052
10 0 59791  23550.000000  0       2883833.978      -6456437.361        -19195.603
10 0 59791  23580.000000  0       2838923.243      -6472665.985        203638.312
10 0 59791  23610.000000  0       2791085.325      -6482146.239        426264.682
10 0 59791  23640.000000  0       2740397.701      -6484854.793        648456.631
10 0 59791  23670.000000  0       2686940.855      -6480775.559        869987.652
10 0 59791  23700.000000  0       2630798.167      -6469899.730       1090631.850
10 0 59791  23730.000000  0       2572055.797      -6452225.802       1310164.175
10 0 59791  23760.000000  0       2510802.563      -6427759.592       1528360.660
10 0 59791  23790.000000  0       2447129.822      -6396514.238       1744998.659
10 0 59791  23820.000000  0       2381131.337      -6358510.200       1959857.073
10 0 59791  23850.000000  0       2312903.154      -6313775.249       2172716.581
10 0 59791  23880.000000  0       2242543.471      -6262344.450       2383359.868
10 0 59791  23910.000000  0       2170152.507      -6204260.135       2591571.850
10 0 59791  23940.000000  0       2095832.369      -6139571.866       2797139.904
10 0 59791  23970.000000  0       2019686.912      -6068336.397       2999854.079
10 0 59791  24000.000000  0       1941821.602      -5990617.615       3199507.322
10 0 59791  24030.000000  0       1862343.377      -5906486.492       3395895.684
10 0 59791  24060.000000  0       1781360.504      -5816021.008       3588818.541
10 0 59791  24090.000000  0       1698982.437      -5719306.083       3778078.794
10 0 59791  24120.000000  0       1615319.677      -5616433.487       3963483.076
10 0 59791  24150.000000  0       1530483.627      -5507501.752       4144841.948
10 0 59791  24180.000000  0       1444586.448      -5392616.073       4321970.095
10 0 59791  24210.000000  0       1357740.923      -5271888.206       4494686.515
10 0 59791  24240.000000  0       1270060.307      -5145436.356       4662814.709
10 0 59791  24270.000000  0       1181658.181      -5013385.057       4826182.864
10 0 59791  24300.000000  0       1092648.311      -4875865.042       4984624.028
10 0 59791  24330.000000  0       1003144.499      -4733013.109       5137976.282
10 0 59791  24360.000000  0        913260.444      -4584971.975       5286082.908
10 0 59791  24390.000000  0        823109.595      -4431890.128       5428792.539
10 0 59791  24420.000000  0        732805.019      -4273921.673       5565959.321
10 0 59791  24450.000000  0        642459.254      -4111226.168       5697443.053
10 0 59791  24480.000000  0        552184.176      -3943968.458       5823109.328
10 0 59791  24510.000000  0        462090.861      -3772318.503       5942829.670
10 0 59791  24540.000000  0        372289.450      -3596451.200       6056481.656
10 0 59791  24570.000000  0        282889.018      -3416546.205       6163949.043
10 0 59791  24600.000000  0        193997.441      -3232787.743       6265121.878
10 0 59791  24630.000000  0        105721.268      -3045364.415       6359896.613
10 0 59791  24660.000000  0         18165.594      -2854469.009       6448176.200
10 0 59791  24690.000000  0        -68566.058      -2660298.294       6529870.198
10 0 59791  24720.000000  0       -154371.864      -2463052.816       6604894.853
10 0 59791  24750.000000  0       -239151.814      -2262936.694       6673173.190
10 0 59791  24780.000000  0       -322807.826      -2060157.407       6734635.084
10 0 59791  24810.000000  0       -405243.866      -1854925.575       6789217.340
10 0 59791  24840.000000  0       -486366.049      -1647454.744       6836863.750
10 0 59791  24870.000000  0       -566082.754      -1437961.153       6877525.158
10 0 59791  24900.000000  0       -644304.721      -1226663.517       6911159.504
10 0 59791  24930.000000  0       -720945.151      -1013782.789       6937731.874
10 0 59791  24960.000000  0       -795919.807       -799541.932       6957214.532
10 0 59791  24990.000000  0       -869147.105       -584165.684       6969586.951
10 0 59791  25020.000000  0       -940548.206       -367880.317       6974835.835
10 0 59791  25050.000000  0      -1010047.099       -150913.408       6972955.131
10 0 59791  25080.000000  0      -1077570.684         66506.411       6963946.044
10 0 59791  25110.000000  0      -1143048.849        284149.689       6947817.036
10 0 59791  25140.000000  0      -1206414.545        501786.404       6924583.818
10 0 59791  25170.000000  0      -1267603.854        719186.203       6894269.338
99
